#cP2023  9  3  0  0  0.00000000      96 ORBIT IGS20 HLM  IGS
## 2278      0.00000000   900.00000000 60190 0.0000000000000
+   32   G01G02G03G04G05G06G07G08G09G10G11G12G13G14G15G16G17
+        G18G19G20G21G22G23G24G25G26G27G28G29G30G31G32  0  0
+          0  0  0  0  0  0  0  0  0  0  0  0  0  0  0  0  0
+          0  0  0  0  0  0  0  0  0  0  0  0  0  0  0  0  0
+          0  0  0  0  0  0  0  0  0  0  0  0  0  0  0  0  0
++         2  2  2  2  2  2  2  2  2  2  2  2  3  2  2  2  2
++         2  2  2  3  2  2  2  2  1  2  2  2  2  2  2  0  0
++         0  0  0  0  0  0  0  0  0  0  0  0  0  0  0  0  0
++         0  0  0  0  0  0  0  0  0  0  0  0  0  0  0  0  0
++         0  0  0  0  0  0  0  0  0  0  0  0  0  0  0  0  0
%c G  cc GPS ccc cccc cccc cccc cccc ccccc ccccc ccccc ccccc
%c cc cc ccc ccc cccc cccc cccc cccc ccccc ccccc ccccc ccccc
%f  1.2500000  1.025000000  0.00000000000  0.000000000000000
%f  0.0000000  0.000000000  0.00000000000  0.000000000000000
%i    0    0    0    0      0      0      0      0         0
%i    0    0    0    0      0      0      0      0         0
/* RAPID ORBIT COMBINATION FROM WEIGHTED AVERAGE OF:        
/* cod emr esa gfz grg jgx jpl ngs sio usn whu              
/* REFERENCED TO IGS TIME (IGST) AND TO WEIGHTED MEAN POLE: 
/* PCV:IGS20      OL/AL:FES2014b NONE     Y  ORB:CMB CLK:CMB
*  2023  9  3  9  0  0.00000000
PG01  14903.934856    518.383240  21672.736579    166.486226  5  8  6  98       
PG02  17218.365999   7111.880603  19497.939841   -558.298170  7  7  5  71       
PG03  20965.706988  -9563.520609  12960.037662   -155.131809  6  4  3  87       
PG04  24555.242975   -684.532903 -10244.999287    144.880620  9  5  6  75       
PG05 -15303.883697  -4789.475951 -21374.060768   -141.276147  7  6  2  65       
PG06  -5105.560533 -25791.860830   3461.060573    556.644566  7  7  6  97       
PG07   8390.043721 -16891.632180 -18034.686390     77.727667  5  3  6  87       
PG08  26139.116109   5804.639441   -598.277747   -140.362686  5  6  5  78       
PG09  18693.279629  -8317.559230 -17040.792260    -69.816462  6  5  6  84       
PG10  -7449.125071  21415.498254  13740.509776    -51.875268  3  3  5  94       
PG11 -12384.526550 -21296.452850  -9977.907630   -350.749786  9  9  6  86       
PG12 -20878.420270   4751.577523  15397.339415   -420.426254  6  4  5 111       
PG13 -21772.591089 -13729.581584  -7181.029684    567.992453 10  8  7  79       
PG14  10796.723683 -21698.896408  10689.594625    173.596894  4  5  4  79       
PG15 -26565.872941  -2609.879944   -367.223348     73.898367  4  7  2  91       
PG16  11453.799939  10246.049659 -21987.799456   -459.531929  6  5  5 107       
PG17   2362.236058 -15062.002361  22176.353508    723.447580  6  6  3  88       
PG18  -6856.341508  18901.888346 -17258.381733   -404.693035  6  5  4  98       
PG19  -7103.195457 -16547.051401  19432.653633    366.383702  6  6  3  82       
PG20  -7737.587969 -14955.975657 -20543.245571    413.833222  7  7     63       
PG21  17613.168234  10270.212950  18002.785160    149.623627 10  7  4  82       
PG22   5040.281322 -20274.822727  17019.444699    129.144735  4  3  3  93       
PG23 -16509.924024  20593.670887   1946.661880     63.319084  6  5  5  95       
PG24 -17314.984117  -4776.860060  19315.488454   -308.721035  4  6  5  88       
PG25 -19749.651924  16885.611734   4452.637133    465.737930  4  6  5  84       
PG26   3205.171232  18322.193254 -18955.306737    230.246229  4     4  85       
PG27  20290.441439  13058.347244 -11807.119425    -33.166616  5  5  5 100       
PG28   4744.281543  25580.258240   5332.209118     -4.959742  7  8  6  82       
PG29 -19184.869915   6255.620028 -17372.207179   -608.832342  3  5  4  90       
PG30   1588.911982 -23839.813003 -11197.821770   -491.080289  4  4  4  82       
PG31  10377.416956  23678.386242  -5196.947785   -222.832658  4  6  1  88       
PG32   3232.122015  15940.045012  21211.558367   -551.736080  3  4  6  97       
*  2023  9  3  9 15  0.00000000
PG01  15629.698815   2913.325623  21001.281462    166.485293  5  8  6  90       
PG02  17931.583887   9030.408664  17975.865534   -558.294660  8  7  5  68       
PG03  20007.601438  -8230.190654  15184.478783   -155.113987  6  4  3  87       
PG04  25498.345289   -236.846820  -7642.428234    144.890756  9  5  5  91       
PG05 -13810.963339  -6709.176254 -21864.149174   -141.277620  7  6  2  78       
PG06  -4769.107472 -25321.377117   6306.950751    556.638931  7  7  6  91       
PG07   9264.104032 -14812.753298 -19393.174492     77.718206  5  4  5  94       
PG08  25883.947334   5997.643166  -3411.536130   -140.365659  5  6  5  89       
PG09  20461.278703  -7826.308237 -15130.103999    -69.807377  6  4  7  81       
PG10  -8520.974491  22360.928412  11346.515118    -51.876528  3  3  5  99       
PG11 -12444.752859 -22309.546523  -7350.514538   -350.765968  8  8  6  77       
PG12 -19635.083134   3281.634371  17275.785824   -420.430238  6  4  4 105       
PG13 -20820.123300 -13597.819914  -9820.402646    567.996536 10  8  7  66       
PG14  11735.970886 -22301.021897   8137.475670    173.607271  4  5  4  94       
PG15 -26399.599885  -2912.809570  -3143.858699     73.901512  6  7     65       
PG16   9668.038572  11920.567045 -21961.648608   -459.527182  6  5  4 103       
PG17   4724.899516 -14439.715178  22223.184186    723.447829  6  5  3  89       
PG18  -7607.562732  16966.606382 -18893.189600   -404.704593  6  5  4 105       
PG19  -4868.935533 -15925.366650  20564.844416    366.388484  5  6  3  90       
PG20  -6450.489170 -16861.803096 -19503.784391    413.831478  7  7     46       
PG21  18261.322897  11992.042385  16226.036211    149.622135 11  7  4  60       
PG22   6410.040229 -21373.559409  15071.593603    129.138381  5  3  3  92       
PG23 -16721.906600  20491.647580   -946.670327     63.323598  6  5  4  85       
PG24 -18073.848182  -6849.960323  18014.960209   -308.730955  5  6  5  96       
PG25 -19512.484269  16155.434451   7199.332729    465.739770  4  6  5  59       
PG26   1793.274982  19865.631988 -17490.754591    230.244714  4  1  4  84       
PG27  18855.375668  12940.619518 -14102.830952    -33.172410  5  5  5  93       
PG28   4248.697607  24945.892280   8051.202239     -4.963839  7  8  7  94       
PG29 -20941.887426   5619.639662 -15458.533551   -608.833144  3  5  5  98       
PG30   2313.064903 -22558.077043 -13493.207993   -491.077432  4  4  4  99       
PG31  10216.344317  24167.139075  -2372.880785   -222.833226  4  6     70       
PG32    851.596273  15521.663822  21730.992463   -551.741820  3  4  6  99       
*  2023  9  3  9 30  0.00000000
PG01  16452.233445   5167.628676  19959.363990    166.484323  5  7  5  98       
PG02  18664.827860  10743.728850  16157.611017   -558.290395  8  6  5  73       
PG03  18976.755983  -6657.661719  17143.768251   -155.096169  6  3  2  89       
PG04  26166.788074    107.963083  -4909.201667    144.900907 10  5  5  79       
PG05 -12402.990168  -8734.829270 -21984.595738   -141.278707  8  7  2  54       
PG06  -4290.727952 -24575.411322   9043.893375    556.633276  6  7  6  93       
PG07  10288.436734 -12653.527641 -20400.146654     77.708757  4  4  5 100       
PG08  25329.274830   6168.930586  -6167.559560   -140.365982  6  6  5  78       
PG09  22024.039407  -7453.751450 -12960.900726    -69.798307  7  4  7  79       
PG10  -9368.008026  23139.998705   8755.562379    -51.878740  3  3  5  88       
PG11 -12458.550587 -23030.269019  -4596.920912   -350.782139  8  8  5  66       
PG12 -18337.171828   1600.954229  18850.069200   -420.434270  6  5  4  95       
PG13 -19586.340579 -13438.523087 -12294.072884    568.000603 10  8  6  93       
PG14  12454.533342 -22720.340388   5444.064041    173.617595  4  5  4  97       
PG15 -25941.420701  -3220.180869  -5867.535920     73.904498  7  7  1  77       
PG16   7986.948517  13674.139799 -21567.368603   -459.522297  6  5  4 111       
PG17   7102.653773 -13952.174618  21902.728507    723.448411  5  5  3  97       
PG18  -8521.402699  14919.713781 -20200.986262   -404.716203  5  5  3 110       
PG19  -2495.294221 -15397.624604  21339.220843    366.393234  5  5  3  86       
PG20  -5326.845759 -18708.664596 -18129.331009    413.830326  7  7  2  86       
PG21  18906.974336  13488.311313  14189.625075    149.621586 11  7  4   9       
PG22   7563.215068 -22376.608584  12874.816156    129.131395  5  3  3  96       
PG23 -16744.625592  20136.283468  -3823.534021     63.328133  6  5  4  82       
PG24 -18854.090777  -8731.549849  16399.529973   -308.740795  5  6  4  96       
PG25 -19127.217529  15168.307305   9818.907206    465.741625  4  6  5  81       
PG26    555.480398  21325.188477 -15724.167756    230.243195  4  1  4  75       
PG27  17175.023763  12867.901170 -16164.055546    -33.178186  5  5  4  97       
PG28   3598.487455  24064.035374  10631.542800     -4.967927  6  7  7  92       
PG29 -22504.934960   5129.961650 -13280.883295   -608.833375  4  5  5  95       
PG30   3187.771431 -21082.100545 -15551.795592   -491.074554  4  5  4  75       
PG31   9963.659196  24360.312277    493.011788   -222.833791  4  6     72       
PG32  -1586.718924  15224.088304  21883.100988   -551.747552  4  3  6  85       
EOF
